[{"OBJECT_NAME":"STARLINK-35766","OBJECT_ID":"2025-303U","EPOCH":"2026-03-09T01:47:30.481440","MEAN_MOTION":15.27573054,"ECCENTRICITY":0.00018216,"INCLINATION":43.0028,"RA_OF_ASC_NODE":313.9692,"ARG_OF_PERICENTER":282.3192,"MEAN_ANOMALY":77.7455,"EPHEMERIS_TYPE":0,"CLASSIFICATION_TYPE":"U","NORAD_CAT_ID":67181,"ELEMENT_SET_NO":999,"REV_AT_EPOCH":1264,"BSTAR":0.0013757799,"MEAN_MOTION_DOT":0.00037783,"MEAN_MOTION_DDOT":0},{"OBJECT_NAME":"COSMOS 374 DEB","OBJECT_ID":"1970-089CW","EPOCH":"2026-03-09T03:15:05.416704","MEAN_MOTION":14.81622526,"ECCENTRICITY":0.02351408,"INCLINATION":62.872,"RA_OF_ASC_NODE":339.5893,"ARG_OF_PERICENTER":12.2958,"MEAN_ANOMALY":348.3731,"EPHEMERIS_TYPE":0,"CLASSIFICATION_TYPE":"U","NORAD_CAT_ID":14122,"ELEMENT_SET_NO":999,"REV_AT_EPOCH":22578,"BSTAR":0.0042555676,"MEAN_MOTION_DOT":0.00054686,"MEAN_MOTION_DDOT":0}]
